CTC1_L_00415016-03
1 63389U 24693GY  26070.40836806  .00000000  00000+0  00000-0 0  9992
2 63389  70.0000 180.0000 0000000   0.0000   0.0000 12.77881384    17
CTC1_L_00415016-04
1 63390U 23632NB  26070.40836806  .00000000  00000+0  00000-0 0  9996
2 63390  70.0000 180.0000 0000000   0.0000  90.0000 12.77881384    18
CTC1_L_00415017-01
1 63391U 23205QH  26070.40836806  .00000000  00000+0  00000-0 0  9993
2 63391  70.0000 192.0000 0000000   0.0000 192.0000 12.77881384    15
CTC1_L_00415017-02
1 63392U 25811YO  26070.40836806  .00000000  00000+0  00000-0 0  9999
2 63392  70.0000 192.0000 0000000   0.0000 282.0000 12.77881384    16
CTC1_L_00415017-03
1 63393U 26874TG  26070.40836806  .00000000  00000+0  00000-0 0  9990
2 63393  70.0000 192.0000 0000000   0.0000  12.0000 12.77881384    18
CTC1_L_00415017-04
1 63394U 24193KA  26070.40836806  .00000000  00000+0  00000-0 0  9993
2 63394  70.0000 192.0000 0000000   0.0000 102.0000 12.77881384    19
CTC1_L_00415018-01
1 63395U 22013FE  26070.40836806  .00000000  00000+0  00000-0 0  9993
2 63395  70.0000 204.0000 0000000   0.0000 204.0000 12.77881384    17
CTC1_L_00415018-02
1 63396U 24545TJ  26070.40836806  .00000000  00000+0  00000-0 0  9996
2 63396  70.0000 204.0000 0000000   0.0000 294.0000 12.77881384    17
CTC1_L_00415018-03
1 63397U 22351BC  26070.40836806  .00000000  00000+0  00000-0 0  9990
2 63397  70.0000 204.0000 0000000   0.0000  24.0000 12.77881384    19
CTC1_L_00415018-04
1 63398U 23707PZ  26070.40836806  .00000000  00000+0  00000-0 0  9997
2 63398  70.0000 204.0000 0000000   0.0000 114.0000 12.77881384    10
CTC1_L_00415019-01
1 63399U 26934JU  26070.40836806  .00000000  00000+0  00000-0 0  9993
2 63399  70.0000 216.0000 0000000   0.0000 216.0000 12.77881384    17
CTC1_L_00415019-02
1 63400U 24031DZ  26070.40836806  .00000000  00000+0  00000-0 0  9992
2 63400  70.0000 216.0000 0000000   0.0000 306.0000 12.77881384    10
CTC1_L_00415019-03
1 63401U 26018PA  26070.40836806  .00000000  00000+0  00000-0 0  9990
2 63401  70.0000 216.0000 0000000   0.0000  36.0000 12.77881384    11
CTC1_L_00415019-04
1 63402U 23809RW  26070.40836806  .00000000  00000+0  00000-0 0  9996
2 63402  70.0000 216.0000 0000000   0.0000 126.0000 12.77881384    12
CTC1_L_00415020-01
1 63403U 24465MK  26070.40836806  .00000000  00000+0  00000-0 0  9996
2 63403  70.0000 228.0000 0000000   0.0000 228.0000 12.77881384    19
CTC1_L_00415020-02
1 63404U 22958GL  26070.40836806  .00000000  00000+0  00000-0 0  9992
2 63404  70.0000 228.0000 0000000   0.0000 318.0000 12.77881384    10
CTC1_L_00415020-03
1 63405U 24822OY  26070.40836806  .00000000  00000+0  00000-0 0  9995
2 63405  70.0000 228.0000 0000000   0.0000  48.0000 12.77881384    11
CTC1_L_00415020-04
1 63406U 26617XG  26070.40836806  .00000000  00000+0  00000-0 0  9990
2 63406  70.0000 228.0000 0000000   0.0000 138.0000 12.77881384    12
CTC1_L_00415021-01
1 63407U 22318AW  26070.40836806  .00000000  00000+0  00000-0 0  9995
2 63407  70.0000 240.0000 0000000   0.0000 240.0000 12.77881384    11
CTC1_L_00415021-02
1 63408U 23561NE  26070.40836806  .00000000  00000+0  00000-0 0  9997
2 63408  70.0000 240.0000 0000000   0.0000 330.0000 12.77881384    12
CTC1_L_00415021-03
1 63409U 26042FL  26070.40836806  .00000000  00000+0  00000-0 0  9995
2 63409  70.0000 240.0000 0000000   0.0000  60.0000 12.77881384    13
CTC1_L_00415021-04
1 63410U 22513HD  26070.40836806  .00000000  00000+0  00000-0 0  9996
2 63410  70.0000 240.0000 0000000   0.0000 150.0000 12.77881384    15
CTC1_L_00415022-01
1 63411U 22650KX  26070.40836806  .00000000  00000+0  00000-0 0  9999
2 63411  70.0000 252.0000 0000000   0.0000 252.0000 12.77881384    12
CTC1_L_00415022-02
1 63412U 26906FP  26070.40836806  .00000000  00000+0  00000-0 0  9998
2 63412  70.0000 252.0000 0000000   0.0000 342.0000 12.77881384    13
CTC1_L_00415022-03
1 63413U 22836LD  26070.40836806  .00000000  00000+0  00000-0 0  9997
2 63413  70.0000 252.0000 0000000   0.0000  72.0000 12.77881384    14
CTC1_L_00415022-04
1 63414U 22386DI  26070.40836806  .00000000  00000+0  00000-0 0  9998
2 63414  70.0000 252.0000 0000000   0.0000 162.0000 12.77881384    15
CTC1_L_00415023-01
1 63415U 24171QT  26070.40836806  .00000000  00000+0  00000-0 0  9993
2 63415  70.0000 264.0000 0000000   0.0000 264.0000 12.77881384    12
CTC1_L_00415023-02
1 63416U 23131AK  26070.40836806  .00000000  00000+0  00000-0 0  9999
2 63416  70.0000 264.0000 0000000   0.0000 354.0000 12.77881384    13
CTC1_L_00415023-03
1 63417U 22156DC  26070.40836806  .00000000  00000+0  00000-0 0  9996
2 63417  70.0000 264.0000 0000000   0.0000  84.0000 12.77881384    14
CTC1_L_00415023-04
1 63418U 25736PJ  26070.40836806  .00000000  00000+0  00000-0 0  9994
2 63418  70.0000 264.0000 0000000   0.0000 174.0000 12.77881384    15
CTC1_L_00415024-01
1 63419U 22081TK  26070.40836806  .00000000  00000+0  00000-0 0  9995
2 63419  70.0000 276.0000 0000000   0.0000 276.0000 12.77881384    12
CTC1_L_00415024-02
1 63420U 22275KS  26070.40836806  .00000000  00000+0  00000-0 0  9992
2 63420  70.0000 276.0000 0000000   0.0000   6.0000 12.77881384    15
CTC1_L_00415024-03
1 63421U 23859Q   26070.40836806  .00000000  00000+0  00000-0 0  9992
2 63421  70.0000 276.0000 0000000   0.0000  96.0000 12.77881384    15
CTC1_L_00415024-04
1 63422U 24224ZB  26070.40836806  .00000000  00000+0  00000-0 0  9990
2 63422  70.0000 276.0000 0000000   0.0000 186.0000 12.77881384    16
CTC1_L_00415025-01
1 63423U 26412QJ  26070.40836806  .00000000  00000+0  00000-0 0  9992
2 63423  70.0000 288.0000 0000000   0.0000 288.0000 12.77881384    13
CTC1_L_00415025-02
1 63424U 23702SW  26070.40836806  .00000000  00000+0  00000-0 0  9992
2 63424  70.0000 288.0000 0000000   0.0000  18.0000 12.77881384    15
CTC1_L_00415025-03
1 63425U 26956BV  26070.40836806  .00000000  00000+0  00000-0 0  9997
2 63425  70.0000 288.0000 0000000   0.0000 108.0000 12.77881384    16
CTC1_L_00415025-04
1 63426U 26188IK  26070.40836806  .00000000  00000+0  00000-0 0  9995
2 63426  70.0000 288.0000 0000000   0.0000 198.0000 12.77881384    16
CTC1_L_00415026-01
1 63427U 26316EO  26070.40836806  .00000000  00000+0  00000-0 0  9999
2 63427  70.0000 300.0000 0000000   0.0000 300.0000 12.77881384    17
CTC1_L_00415026-02
1 63428U 23002P   26070.40836806  .00000000  00000+0  00000-0 0  9999
2 63428  70.0000 300.0000 0000000   0.0000  30.0000 12.77881384    18
CTC1_L_00415026-03
1 63429U 22059EZ  26070.40836806  .00000000  00000+0  00000-0 0  9991
2 63429  70.0000 300.0000 0000000   0.0000 120.0000 12.77881384    19
CTC1_L_00415026-04
1 63430U 25146TS  26070.40836806  .00000000  00000+0  00000-0 0  9993
2 63430  70.0000 300.0000 0000000   0.0000 210.0000 12.77881384    11
CTC1_L_00415027-01
1 63431U 25984ND  26070.40836806  .00000000  00000+0  00000-0 0  9994
2 63431  70.0000 312.0000 0000000   0.0000 312.0000 12.77881384    18
CTC1_L_00415027-02
1 63432U 23401HY  26070.40836806  .00000000  00000+0  00000-0 0  9997
2 63432  70.0000 312.0000 0000000   0.0000  42.0000 12.77881384    19
CTC1_L_00415027-03
1 63433U 25483KT  26070.40836806  .00000000  00000+0  00000-0 0  9990
2 63433  70.0000 312.0000 0000000   0.0000 132.0000 12.77881384    10
CTC1_L_00415027-04
1 63434U 25773GA  26070.40836806  .00000000  00000+0  00000-0 0  9993
2 63434  70.0000 312.0000 0000000   0.0000 222.0000 12.77881384    11
CTC1_L_00415028-01
1 63435U 26530W   26070.40836806  .00000000  00000+0  00000-0 0  9996
2 63435  70.0000 324.0000 0000000   0.0000 324.0000 12.77881384    18
CTC1_L_00415028-02
1 63436U 23448GU  26070.40836806  .00000000  00000+0  00000-0 0  9992
2 63436  70.0000 324.0000 0000000   0.0000  54.0000 12.77881384    19
CTC1_L_00415028-03
1 63437U 23499FG  26070.40836806  .00000000  00000+0  00000-0 0  9999
2 63437  70.0000 324.0000 0000000   0.0000 144.0000 12.77881384    10
CTC1_L_00415028-04
1 63438U 26924LH  26070.40836806  .00000000  00000+0  00000-0 0  9996
2 63438  70.0000 324.0000 0000000   0.0000 234.0000 12.77881384    11
CTC1_L_00415029-01
1 63439U 23747EV  26070.40836806  .00000000  00000+0  00000-0 0  9997
2 63439  70.0000 336.0000 0000000   0.0000 336.0000 12.77881384    18
CTC1_L_00415029-02
1 63440U 22100BT  26070.40836806  .00000000  00000+0  00000-0 0  9991
2 63440  70.0000 336.0000 0000000   0.0000  66.0000 12.77881384    10
CTC1_L_00415029-03
1 63441U 25654QD  26070.40836806  .00000000  00000+0  00000-0 0  9999
2 63441  70.0000 336.0000 0000000   0.0000 156.0000 12.77881384    11
CTC1_L_00415029-04
1 63442U 25527MO  26070.40836806  .00000000  00000+0  00000-0 0  9999
2 63442  70.0000 336.0000 0000000   0.0000 246.0000 12.77881384    12
CTC1_L_00415030-01
1 63443U 25723PZ  26070.40836806  .00000000  00000+0  00000-0 0  9998
2 63443  70.0000 348.0000 0000000   0.0000 348.0000 12.77881384    19
CTC1_L_00415030-02
1 63444U 25457AJ  26070.40836806  .00000000  00000+0  00000-0 0  9993
2 63444  70.0000 348.0000 0000000   0.0000  78.0000 12.77881384    10
CTC1_L_00415030-03
1 63445U 22816FR  26070.40836806  .00000000  00000+0  00000-0 0  9990
2 63445  70.0000 348.0000 0000000   0.0000 168.0000 12.77881384    11
CTC1_L_00415030-04
1 63446U 22533GK  26070.40836806  .00000000  00000+0  00000-0 0  9997
2 63446  70.0000 348.0000 0000000   0.0000 258.0000 12.77881384    12
